[{"OBJECT_NAME":"YAM-7","OBJECT_ID":"2024-149AN","EPOCH":"2026-03-09T17:13:55.117920","MEAN_MOTION":15.30304554,"ECCENTRICITY":0.00019733,"INCLINATION":97.3828,"RA_OF_ASC_NODE":149.4631,"ARG_OF_PERICENTER":296.5121,"MEAN_ANOMALY":63.5918,"EPHEMERIS_TYPE":0,"CLASSIFICATION_TYPE":"U","NORAD_CAT_ID":60504,"ELEMENT_SET_NO":999,"REV_AT_EPOCH":8683,"BSTAR":0.00030984439,"MEAN_MOTION_DOT":9.009e-5,"MEAN_MOTION_DDOT":0},{"OBJECT_NAME":"STARLINK-34766","OBJECT_ID":"2025-263W","EPOCH":"2026-03-09T04:02:26.075904","MEAN_MOTION":15.27571596,"ECCENTRICITY":0.00013711,"INCLINATION":43.0014,"RA_OF_ASC_NODE":353.2552,"ARG_OF_PERICENTER":268.5653,"MEAN_ANOMALY":91.5042,"EPHEMERIS_TYPE":0,"CLASSIFICATION_TYPE":"U","NORAD_CAT_ID":66505,"ELEMENT_SET_NO":999,"REV_AT_EPOCH":1882,"BSTAR":0.0012252695,"MEAN_MOTION_DOT":0.000336,"MEAN_MOTION_DDOT":0}]
